[{"OBJECT_NAME":"STARLINK-34026","OBJECT_ID":"2025-093G","EPOCH":"2026-03-09T09:21:04.361184","MEAN_MOTION":15.27569695,"ECCENTRICITY":0.00012596,"INCLINATION":42.9984,"RA_OF_ASC_NODE":79.827,"ARG_OF_PERICENTER":273.7064,"MEAN_ANOMALY":86.3644,"EPHEMERIS_TYPE":0,"CLASSIFICATION_TYPE":"U","NORAD_CAT_ID":63842,"ELEMENT_SET_NO":999,"REV_AT_EPOCH":4770,"BSTAR":0.0012628556,"MEAN_MOTION_DOT":0.00034641,"MEAN_MOTION_DDOT":0},{"OBJECT_NAME":"KUIPER-00209","OBJECT_ID":"2026-030N","EPOCH":"2026-03-09T14:49:43.575744","MEAN_MOTION":15.3016195,"ECCENTRICITY":0.0012191,"INCLINATION":51.8838,"RA_OF_ASC_NODE":220.0775,"ARG_OF_PERICENTER":59.1967,"MEAN_ANOMALY":301.0215,"EPHEMERIS_TYPE":0,"CLASSIFICATION_TYPE":"U","NORAD_CAT_ID":67776,"ELEMENT_SET_NO":999,"REV_AT_EPOCH":507,"BSTAR":0.0011963,"MEAN_MOTION_DOT":0.00035298,"MEAN_MOTION_DDOT":0}]
