STARLINK-34026          
1 63842U 25093G   26068.38963381  .00034641  00000+0  12629-2 0  9994
2 63842  42.9984  79.8270 0001259 273.7064  86.3644 15.27569695 47704
KUIPER-00209            
1 67776U 26030N   26068.61786546  .00035298  00000+0  11963-2 0  9997
2 67776  51.8838 220.0775 0012191  59.1967 301.0215 15.30161950  5077
